NORAD_CAT_ID,OBJECT_NAME,OBJECT_TYPE,EPOCH,MEAN_MOTION,ECCENTRICITY,INCLINATION,RA_OF_ASC_NODE,ARG_OF_PERICENTER,MEAN_ANOMALY,BSTAR,MEAN_MOTION_DOT,MEAN_MOTION_DDOT,TLE_LINE0,TLE_LINE1,TLE_LINE2,SEMIMAJOR_AXIS,PERIOD,APOGEE,PERIGEE,DECAYED
53294.0,STARLINK-4146,PAYLOAD,2024-05-03 20:24:21,15.08835783,0.0001585,53.2187,323.4295,89.765,270.3524,0.00011278,1.507e-05,0.0,0 STARLINK-4146,1 53294U 22086BE  24124.85025050  .00001507  00000-0  11278-3 0  9994,2 53294  53.2187 323.4295 0001585  89.7650 270.3524 15.08835783 99293,6917.893,95.438,540.855,538.662,0.0
53294.0,STARLINK-4146,PAYLOAD,2024-05-04 23:25:54,15.08835602,0.0001334,53.2185,318.3732,83.3897,276.7247,0.00040345,6.138e-05,0.0,0 STARLINK-4146,1 53294U 22086BE  24125.97632676  .00006138  00000-0  40345-3 0  9998,2 53294  53.2185 318.3732 0001334  83.3897 276.7247 15.08835602 99466,6917.894,95.438,540.682,538.836,0.0
53294.0,STARLINK-4146,PAYLOAD,2024-05-05 12:08:59,15.08848887,0.0001439,53.2191,315.9928,81.9798,278.1357,0.00015347,2.156e-05,0.0,0 STARLINK-4146,1 53294U 22086BE  24126.50624679  .00002156  00000-0  15347-3 0  9992,2 53294  53.2191 315.9928 0001439  81.9798 278.1357 15.08848887 99741,6917.853,95.437,540.714,538.723,0.0
53294.0,STARLINK-4146,PAYLOAD,2024-05-05 20:05:55,15.08847846,0.0001393,53.2188,314.5065,71.3994,288.7149,7.8684e-05,9.65e-06,0.0,0 STARLINK-4146,1 53294U 22086BE  24126.83744752  .00000965  00000-0  78684-4 0  9993,2 53294  53.2188 314.5065 0001393  71.3994 288.7149 15.08847846 99799,6917.856,95.437,540.685,538.758,0.0
53294.0,STARLINK-4146,PAYLOAD,2024-05-06 11:59:46,15.08851125,0.0001215,53.2181,311.5318,86.6327,273.4804,9.4947e-05,1.224e-05,0.0,0 STARLINK-4146,1 53294U 22086BE  24127.49983993  .00001224  00000-0  94947-4 0  9997,2 53294  53.2181 311.5318 0001215  86.6327 273.4804 15.08851125 99695,6917.846,95.437,540.552,538.871,0.0
53294.0,STARLINK-4146,PAYLOAD,2024-05-06 19:56:41,15.08850003,0.0001327,53.2175,310.0457,96.0923,264.0221,2.0586e-05,4e-07,0.0,0 STARLINK-4146,1 53294U 22086BE  24127.83104091  .00000040  00000-0  20586-4 0  9992,2 53294  53.2175 310.0457 0001327  96.0923 264.0221 15.08850003 99948,6917.85,95.437,540.633,538.797,0.0
53294.0,STARLINK-4146,PAYLOAD,2024-05-07 05:28:59,15.08857843,0.000116,53.218,308.2593,94.0022,266.1102,9.6132e-05,1.243e-05,0.0,0 STARLINK-4146,1 53294U 22086BE  24128.22847047  .00001243  00000-0  96132-4 0  9997,2 53294  53.2180 308.2593 0001160  94.0022 266.1102 15.08857843100007,6917.826,95.436,540.493,538.888,0.0
53294.0,STARLINK-4146,PAYLOAD,2024-05-07 18:12:06,15.08831918,0.0001488,53.2185,305.8837,82.3229,277.7932,-5.9104e-05,-1.228e-05,0.0,0 STARLINK-4146,1 53294U 22086BE  24128.75841168 -.00001228  00000-0 -59104-4 0  9996,2 53294  53.2185 305.8837 0001488  82.3229 277.7932 15.08831918 99885,6917.905,95.438,540.799,538.741,0.0
53294.0,STARLINK-4146,PAYLOAD,2024-05-07 21:22:52,15.0883858,0.0001295,53.2183,305.2879,85.4151,274.6989,-1.2331e-05,-4.84e-06,0.0,0 STARLINK-4146,1 53294U 22086BE  24128.89088583 -.00000484  00000-0 -12331-4 0  9999,2 53294  53.2183 305.2879 0001295  85.4151 274.6989 15.08838580100105,6917.885,95.438,540.646,538.854,0.0
53294.0,STARLINK-4146,PAYLOAD,2024-05-08 14:52:07,15.08837372,0.0001546,53.2189,302.0185,86.3789,273.738,4.2282e-05,3.85e-06,0.0,0 STARLINK-4146,1 53294U 22086BE  24129.61952761  .00000385  00000-0  42282-4 0  9994,2 53294  53.2189 302.0185 0001546  86.3789 273.7380 15.08837372100217,6917.888,95.438,540.823,538.684,0.0
53294.0,STARLINK-4146,PAYLOAD,2024-05-08 18:02:53,15.08836712,0.0001309,53.2192,301.4233,89.4533,270.6609,9.6459e-05,1.247e-05,0.0,0 STARLINK-4146,1 53294U 22086BE  24129.75200601  .00001247  00000-0  96459-4 0  9991,2 53294  53.2192 301.4233 0001309  89.4533 270.6609 15.08836712100235,6917.89,95.438,540.661,538.85,0.0
53294.0,STARLINK-4146,PAYLOAD,2024-05-09 11:32:07,15.08834145,0.0001284,53.2184,298.15,85.4008,274.7131,0.0001587,2.238e-05,0.0,0 STARLINK-4146,1 53294U 22086BE  24130.48064521  .00002238  00000-0  15870-3 0  9990,2 53294  53.2184 298.1500 0001284  85.4008 274.7131 15.08834145100143,6917.898,95.438,540.652,538.875,0.0
53294.0,STARLINK-4146,PAYLOAD,2024-05-09 14:42:54,15.08834324,0.0001312,53.2182,297.5552,86.1438,273.9704,0.00015317,2.15e-05,0.0,0 STARLINK-4146,1 53294U 22086BE  24130.61312669  .00002150  00000-0  15317-3 0  9993,2 53294  53.2182 297.5552 0001312  86.1438 273.9704 15.08834324100368,6917.898,95.438,540.67,538.855,0.0
53294.0,STARLINK-4146,PAYLOAD,2024-05-09 17:53:40,15.08837025,0.0001315,53.2185,296.9627,82.6647,277.4494,8.6153e-05,1.083e-05,0.0,0 STARLINK-4146,1 53294U 22086BE  24130.74560790  .00001083  00000-0  86153-4 0  9998,2 53294  53.2185 296.9627 0001315  82.6647 277.4494 15.08837025100381,6917.889,95.438,540.664,538.845,0.0
53294.0,STARLINK-4146,PAYLOAD,2024-05-10 11:22:55,15.08820006,0.0001227,53.2181,293.6893,89.948,270.1653,0.0003665,5.547e-05,0.0,0 STARLINK-4146,1 53294U 22086BE  24131.47425452  .00005547  00000-0  36650-3 0  9999,2 53294  53.2181 293.6893 0001227  89.9480 270.1653 15.08820006100291,6917.942,95.439,540.655,538.958,0.0
53294.0,STARLINK-4146,PAYLOAD,2024-05-10 17:44:27,15.08834892,0.0001124,53.2163,292.4999,90.2311,269.8809,6.2859e-05,7.13e-06,0.0,0 STARLINK-4146,1 53294U 22086BE  24131.73921215  .00000713  00000-0  62859-4 0  9997,2 53294  53.2163 292.4999 0001124  90.2311 269.8809 15.08834892100330,6917.896,95.438,540.539,538.983,0.0
53294.0,STARLINK-4146,PAYLOAD,2024-05-11 12:49:03,15.08856404,0.0001442,53.2168,288.9329,92.922,267.1937,0.00015231,2.138e-05,0.0,0 STARLINK-4146,1 53294U 22086BE  24132.53406639  .00002138  00000-0  15231-3 0  9998,2 53294  53.2168 288.9329 0001442  92.9220 267.1937 15.08856404100452,6917.83,95.437,540.693,538.698,0.0
53294.0,STARLINK-4146,PAYLOAD,2024-05-11 20:46:02,15.08789033,0.0001087,53.2168,287.4462,96.6122,263.4993,-0.00081831,-0.00013269,0.0,0 STARLINK-4146,1 53294U 22086BE  24132.86530156 -.00013269  00000-0 -81831-3 0  9994,2 53294  53.2168 287.4462 0001087  96.6122 263.4993 15.08789033100501,6918.036,95.441,540.653,539.149,0.0
53294.0,STARLINK-4146,PAYLOAD,2024-05-11 22:21:25,15.08789099,0.0001099,53.2168,287.1491,100.34,259.7716,-0.0008025,-0.00013019,0.0,0 STARLINK-4146,1 53294U 22086BE  24132.93154272 -.00013019  00000-0 -80250-3 0  9990,2 53294  53.2168 287.1491 0001099 100.3400 259.7716 15.08789099100711,6918.036,95.441,540.661,539.141,0.0
53294.0,STARLINK-4146,PAYLOAD,2024-05-12 14:15:17,15.08811818,0.0001239,53.2168,284.1756,89.2428,270.8706,-0.00015926,-2.82e-05,0.0,0 STARLINK-4146,1 53294U 22086BE  24133.59395428 -.00002820  00000-0 -15926-3 0  9999,2 53294  53.2168 284.1756 0001239  89.2428 270.8706 15.08811818100812,6917.967,95.439,540.689,538.974,0.0
53294.0,STARLINK-4146,PAYLOAD,2024-05-12 20:36:50,15.0881505,0.0001309,53.2169,282.9865,90.3322,269.782,-6.2397e-05,-1.28e-05,0.0,0 STARLINK-4146,1 53294U 22086BE  24133.85891824 -.00001280  00000-0 -62397-4 0  9993,2 53294  53.2169 282.9865 0001309  90.3322 269.7820 15.08815050100652,6917.957,95.439,540.727,538.916,0.0
53294.0,STARLINK-4146,PAYLOAD,2024-05-12 22:12:13,15.08817543,0.0001319,53.2168,282.6892,91.1298,268.9845,-1.693e-05,-5.57e-06,0.0,0 STARLINK-4146,1 53294U 22086BE  24133.92515811 -.00000557  00000-0 -16930-4 0  9998,2 53294  53.2168 282.6892 0001319  91.1298 268.9845 15.08817543100860,6917.949,95.439,540.727,538.902,0.0
53294.0,STARLINK-4146,PAYLOAD,2024-05-13 02:58:22,15.08828862,0.0001479,53.2168,281.7969,95.6674,264.4487,-0.00010903,-2.022e-05,0.0,0 STARLINK-4146,1 53294U 22086BE  24134.12387367 -.00002022  00000-0 -10903-3 0  9996,2 53294  53.2168 281.7969 0001479  95.6674 264.4487 15.08828862100699,6917.914,95.438,540.803,538.756,0.0
53294.0,STARLINK-4146,PAYLOAD,2024-05-13 09:19:54,15.08841344,0.0001406,53.2168,280.6073,93.7405,266.3748,-0.00037657,-6.276e-05,0.0,0 STARLINK-4146,1 53294U 22086BE  24134.38883069 -.00006276  00000-0 -37657-3 0  9994,2 53294  53.2168 280.6073 0001406  93.7405 266.3748 15.08841344100730,6917.876,95.437,540.714,538.769,0.0
53294.0,STARLINK-4146,PAYLOAD,2024-05-14 09:10:42,15.08856606,0.0001408,53.2164,276.1467,89.4744,270.6409,0.00097707,0.00015303,0.0,0 STARLINK-4146,1 53294U 22086BE  24135.38243723  .00015303  00000-0  97707-3 0  9993,2 53294  53.2164 276.1467 0001408  89.4744 270.6409 15.08856606100888,6917.83,95.437,540.669,538.721,0.0
53294.0,STARLINK-4146,PAYLOAD,2024-05-15 02:39:54,15.0889463,0.0001279,53.2164,272.8755,87.0475,273.0663,0.0007615,0.0001187,0.0,0 STARLINK-4146,1 53294U 22086BE  24136.11104715  .00011870  00000-0  76150-3 0  9996,2 53294  53.2164 272.8755 0001279  87.0475 273.0663 15.08894630100992,6917.713,95.434,540.463,538.694,0.0
53294.0,STARLINK-4146,PAYLOAD,2024-05-15 09:01:27,15.08852181,0.0002532,53.2149,271.6864,94.4629,265.6652,-0.000337,-5.65e-05,0.0,0 STARLINK-4146,1 53294U 22086BE  24136.37601524 -.00005650  00000-0 -33700-3 0  9999,2 53294  53.2149 271.6864 0002532  94.4629 265.6652 15.08852181101035,6917.843,95.437,541.46,537.957,0.0
53294.0,STARLINK-4146,PAYLOAD,2024-05-15 13:47:37,15.08848161,0.0001917,53.2154,270.7939,96.243,263.878,-0.0004165,-6.912e-05,0.0,0 STARLINK-4146,1 53294U 22086BE  24136.57473510 -.00006912  00000-0 -41650-3 0  9998,2 53294  53.2154 270.7939 0001917  96.2430 263.8780 15.08848161101260,6917.855,95.437,541.047,538.394,0.0
53294.0,STARLINK-4146,PAYLOAD,2024-05-15 15:23:00,15.08847989,0.0001278,53.2177,270.4988,76.4041,283.7094,-0.00042722,-7.082e-05,0.0,0 STARLINK-4146,1 53294U 22086BE  24136.64097602 -.00007082  00000-0 -42722-3 0  9990,2 53294  53.2177 270.4988 0001278  76.4041 283.7094 15.08847989101271,6917.856,95.437,540.605,538.837,0.0
53294.0,STARLINK-4146,PAYLOAD,2024-05-16 12:03:00,15.08848796,0.0002353,53.217,266.6257,132.9083,227.2107,0.00026558,3.942e-05,0.0,0 STARLINK-4146,1 53294U 22086BE  24137.50208993  .00003942  00000-0  26558-3 0  9991,2 53294  53.2170 266.6257 0002353 132.9083 227.2107 15.08848796101207,6917.854,95.437,541.346,538.091,0.0
